[{"OBJECT_NAME":"ONEWEB-0190","OBJECT_ID":"2021-045AF","EPOCH":"2026-03-09T19:51:38.897856","MEAN_MOTION":13.15548493,"ECCENTRICITY":0.00019287,"INCLINATION":87.8937,"RA_OF_ASC_NODE":279.0378,"ARG_OF_PERICENTER":112.8585,"MEAN_ANOMALY":247.2749,"EPHEMERIS_TYPE":0,"CLASSIFICATION_TYPE":"U","NORAD_CAT_ID":48796,"ELEMENT_SET_NO":999,"REV_AT_EPOCH":23130,"BSTAR":-0.00031694491,"MEAN_MOTION_DOT":-1.06e-6,"MEAN_MOTION_DDOT":0},{"OBJECT_NAME":"FENGYUN 1C DEB","OBJECT_ID":"1999-025EBT","EPOCH":"2026-02-28T10:05:35.696256","MEAN_MOTION":13.46000024,"ECCENTRICITY":0.03181701,"INCLINATION":100.8155,"RA_OF_ASC_NODE":311.3451,"ARG_OF_PERICENTER":223.1269,"MEAN_ANOMALY":134.4534,"EPHEMERIS_TYPE":0,"CLASSIFICATION_TYPE":"U","NORAD_CAT_ID":36987,"ELEMENT_SET_NO":999,"REV_AT_EPOCH":61922,"BSTAR":0.00044789678,"MEAN_MOTION_DOT":3.11e-6,"MEAN_MOTION_DDOT":0}]
